STARLINK-31982          
1 60022U 24111G   26068.39675336 -.00001912  00000+0 -52451-4 0  9998
2 60022  53.1610  76.6335 0001312 104.9475 255.1672 15.30197424 99007
TEVEL2-6                
1 63215U 25052F   26068.64958975  .00021046  00000+0  70909-3 0  9996
2 63215  97.4016 325.0381 0004769  95.6604 264.5181 15.30760889 54861
